STARLINK-1365
1 45590U 20025BM  26061.16325410  .00035269  00000+0  76307-3 0  9999
2 45590  53.0531 129.3663 0002895   3.5663 356.5362 15.44161482324127
